{"type": "FeatureCollection", "features": [ {"type": "Feature", "properties": {"norad_id": 31150, "name": "FENGYUN 1C DEB", "group": "fengyun-1c-debris", "lat": 73.16740471323271, "lon": -140.6927730341158, "alt_km": 832.0282394079222, "timestamp": "2025-12-26T17:24:54.999996+00:00", "meta": {"OBJECT_NAME": "FENGYUN 1C DEB", "OBJECT_ID": "1999-025BHC", "EPOCH": "2025-12-26T06:49:32.331936", "MEAN_MOTION": 14.12741077, "ECCENTRICITY": 0.00158041, "INCLINATION": 98.6857, "RA_OF_ASC_NODE": 8.5303, "ARG_OF_PERICENTER": 122.5658, "MEAN_ANOMALY": 259.1272, "EPHEMERIS_TYPE": 0, "CLASSIFICATION_TYPE": "U", "NORAD_CAT_ID": 31150, "ELEMENT_SET_NO": 999, "REV_AT_EPOCH": 96488, "BSTAR": 0.00014547559, "MEAN_MOTION_DOT": 2.28e-06, "MEAN_MOTION_DDOT": 0}, "tle": {"line1": "1 31150U 99025BHC 25360.28440199  .00000228  00000+0  14548-3 0  9994", "line2": "2 31150  98.6857   8.5303 0015804 122.5658 259.1272 14.12741077964888"}}, "geometry": {"type": "Point", "coordinates": [-140.6927730341158, 73.16740471323271]}}, {"type": "Feature", "properties": {"norad_id": 31151, "name": "FENGYUN 1C DEB", "group": "fengyun-1c-debris", "lat": -26.149790258215145, "lon": -177.7873794207853, "alt_km": 841.030788310456, "timestamp": "2025-12-26T17:24:55.000006+00:00", "meta": {"OBJECT_NAME": "FENGYUN 1C DEB", "OBJECT_ID": "1999-025BHD", "EPOCH": "2025-12-25T23:36:26.476128", "MEAN_MOTION": 14.2594835, "ECCENTRICITY": 0.0056201, "INCLINATION": 99.1376, "RA_OF_ASC_NODE": 5.9717, "ARG_OF_PERICENTER": 347.0338, "MEAN_ANOMALY": 12.9392, "EPHEMERIS_TYPE": 0, "CLASSIFICATION_TYPE": "U", "NORAD_CAT_ID": 31151, "ELEMENT_SET_NO": 999, "REV_AT_EPOCH": 96163, "BSTAR": 0.0023335, "MEAN_MOTION_DOT": 5.612e-05, "MEAN_MOTION_DDOT": 0}, "tle": {"line1": "1 31151U 99025BHD 25359.98363977  .00005612  00000+0  23335-2 0  9993", "line2": "2 31151  99.1376   5.9717 0056201 347.0338  12.9392 14.25948350961631"}}, "geometry": {"type": "Point", "coordinates": [-177.7873794207853, -26.149790258215145]}}, {"type": "Feature", "properties": {"norad_id": 31152, "name": "FENGYUN 1C DEB", "group": "fengyun-1c-debris", "lat": 70.50983019046029, "lon": -37.73295758704945, "alt_km": 749.1533192349943, "timestamp": "2025-12-26T17:24:55.000017+00:00", "meta": {"OBJECT_NAME": "FENGYUN 1C DEB", "OBJECT_ID": "1999-025BHE", "EPOCH": "2025-12-24T10:36:14.536224", "MEAN_MOTION": 14.35857873, "ECCENTRICITY": 0.01294685, "INCLINATION": 98.4153, "RA_OF_ASC_NODE": 344.7627, "ARG_OF_PERICENTER": 358.5548, "MEAN_ANOMALY": 154.0061, "EPHEMERIS_TYPE": 0, "CLASSIFICATION_TYPE": "U", "NORAD_CAT_ID": 31152, "ELEMENT_SET_NO": 999, "REV_AT_EPOCH": 98216, "BSTAR": 0.00011929315, "MEAN_MOTION_DOT": 3.34e-06, "MEAN_MOTION_DDOT": 0}, "tle": {"line1": "1 31152U 99025BHE 25358.44183491  .00000334  00000+0  11929-3 0  9998", "line2": "2 31152  98.4153 344.7627 0129468 358.5548 154.0061 14.35857873982169"}}, "geometry": {"type": "Point", "coordinates": [-37.73295758704945, 70.50983019046029]}}, {"type": "Feature", "properties": {"norad_id": 31155, "name": "FENGYUN 1C DEB", "group": "fengyun-1c-debris", "lat": 38.0824674232117, "lon": 62.51653232685651, "alt_km": 845.5001375566471, "timestamp": "2025-12-26T17:24:55.000028+00:00", "meta": {"OBJECT_NAME": "FENGYUN 1C DEB", "OBJECT_ID": "1999-025BHH", "EPOCH": "2025-12-25T15:39:32.131008", "MEAN_MOTION": 14.08376104, "ECCENTRICITY": 0.00887598, "INCLINATION": 99.0404, "RA_OF_ASC_NODE": 68.608, "ARG_OF_PERICENTER": 326.1496, "MEAN_ANOMALY": 33.4026, "EPHEMERIS_TYPE": 0, "CLASSIFICATION_TYPE": "U", "NORAD_CAT_ID": 31155, "ELEMENT_SET_NO": 999, "REV_AT_EPOCH": 95769, "BSTAR": 0.0011515771, "MEAN_MOTION_DOT": 1.999e-05, "MEAN_MOTION_DDOT": 0}, "tle": {"line1": "1 31155U 99025BHH 25359.65245522  .00001999  00000+0  11516-2 0  9998", "line2": "2 31155  99.0404  68.6080 0088759 326.1496  33.4026 14.08376104957697"}}, "geometry": {"type": "Point", "coordinates": [62.51653232685651, 38.0824674232117]}}, {"type": "Feature", "properties": {"norad_id": 31157, "name": "FENGYUN 1C DEB", "group": "fengyun-1c-debris", "lat": -26.51950389137345, "lon": -12.014226351350342, "alt_km": 773.7035108522723, "timestamp": "2025-12-26T17:24:55.000038+00:00", "meta": {"OBJECT_NAME": "FENGYUN 1C DEB", "OBJECT_ID": "1999-025BHK", "EPOCH": "2025-12-25T04:24:12.072384", "MEAN_MOTION": 14.22581375, "ECCENTRICITY": 0.0099325, "INCLINATION": 98.4826, "RA_OF_ASC_NODE": 342.2302, "ARG_OF_PERICENTER": 290.1653, "MEAN_ANOMALY": 68.8863, "EPHEMERIS_TYPE": 0, "CLASSIFICATION_TYPE": "U", "NORAD_CAT_ID": 31157, "ELEMENT_SET_NO": 999, "REV_AT_EPOCH": 97160, "BSTAR": 0.00030637, "MEAN_MOTION_DOT": 6.77e-06, "MEAN_MOTION_DDOT": 0}, "tle": {"line1": "1 31157U 99025BHK 25359.18347306  .00000677  00000+0  30637-3 0  9999", "line2": "2 31157  98.4826 342.2302 0099325 290.1653  68.8863 14.22581375971606"}}, "geometry": {"type": "Point", "coordinates": [-12.014226351350342, -26.51950389137345]}}, {"type": "Feature", "properties": {"norad_id": 31158, "name": "FENGYUN 1C DEB", "group": "fengyun-1c-debris", "lat": -37.96303027878613, "lon": 86.49931491960461, "alt_km": 758.28935091725, "timestamp": "2025-12-26T17:24:55.000048+00:00", "meta": {"OBJECT_NAME": "FENGYUN 1C DEB", "OBJECT_ID": "1999-025BHL", "EPOCH": "2025-12-21T11:56:21.493536", "MEAN_MOTION": 14.33299733, "ECCENTRICITY": 0.00468097, "INCLINATION": 98.7797, "RA_OF_ASC_NODE": 74.2735, "ARG_OF_PERICENTER": 8.2217, "MEAN_ANOMALY": 351.9724, "EPHEMERIS_TYPE": 0, "CLASSIFICATION_TYPE": "U", "NORAD_CAT_ID": 31158, "ELEMENT_SET_NO": 999, "REV_AT_EPOCH": 64605, "BSTAR": 0.0012542591, "MEAN_MOTION_DOT": 3.451e-05, "MEAN_MOTION_DDOT": 0}, "tle": {"line1": "1 31158U 99025BHL 25355.49747099  .00003451  00000+0  12543-2 0  9991", "line2": "2 31158  98.7797  74.2735 0046809   8.2217 351.9724 14.33299733646058"}}, "geometry": {"type": "Point", "coordinates": [86.49931491960461, -37.96303027878613]}}, {"type": "Feature", "properties": {"norad_id": 31159, "name": "FENGYUN 1C DEB", "group": "fengyun-1c-debris", "lat": 32.88832287396755, "lon": -43.850742547853905, "alt_km": 417.22381736594343, "timestamp": "2025-12-26T17:24:55.000057+00:00", "meta": {"OBJECT_NAME": "FENGYUN 1C DEB", "OBJECT_ID": "1999-025BHM", "EPOCH": "2025-12-25T03:51:07.680384", "MEAN_MOTION": 15.40087027, "ECCENTRICITY": 0.0105705, "INCLINATION": 97.8001, "RA_OF_ASC_NODE": 319.5662, "ARG_OF_PERICENTER": 329.563, "MEAN_ANOMALY": 29.9504, "EPHEMERIS_TYPE": 0, "CLASSIFICATION_TYPE": "U", "NORAD_CAT_ID": 31159, "ELEMENT_SET_NO": 999, "REV_AT_EPOCH": 99744, "BSTAR": 0.0016351, "MEAN_MOTION_DOT": 0.00080319, "MEAN_MOTION_DDOT": 0}, "tle": {"line1": "1 31159U 99025BHM 25359.16050556  .00080319  00000+0  16351-2 0  9994", "line2": "2 31159  97.8001 319.5662 0105705 329.5630  29.9504 15.40087027997440"}}, "geometry": {"type": "Point", "coordinates": [-43.850742547853905, 32.88832287396755]}}, {"type": "Feature", "properties": {"norad_id": 31160, "name": "FENGYUN 1C DEB", "group": "fengyun-1c-debris", "lat": 8.798803756478645, "lon": -121.68451255560043, "alt_km": 867.6864968556947, "timestamp": "2025-12-26T17:24:55.000067+00:00", "meta": {"OBJECT_NAME": "FENGYUN 1C DEB", "OBJECT_ID": "1999-025BHN", "EPOCH": "2025-12-23T21:41:00.062016", "MEAN_MOTION": 13.99593412, "ECCENTRICITY": 0.0057633, "INCLINATION": 99.0833, "RA_OF_ASC_NODE": 54.0972, "ARG_OF_PERICENTER": 224.8785, "MEAN_ANOMALY": 134.7712, "EPHEMERIS_TYPE": 0, "CLASSIFICATION_TYPE": "U", "NORAD_CAT_ID": 31160, "ELEMENT_SET_NO": 999, "REV_AT_EPOCH": 69755, "BSTAR": -5.6933e-05, "MEAN_MOTION_DOT": -1.29e-06, "MEAN_MOTION_DDOT": 0}, "tle": {"line1": "1 31160U 99025BHN 25357.90347294 -.00000129  00000+0 -56933-4 0  9999", "line2": "2 31160  99.0833  54.0972 0057633 224.8785 134.7712 13.99593412697555"}}, "geometry": {"type": "Point", "coordinates": [-121.68451255560043, 8.798803756478645]}}, {"type": "Feature", "properties": {"norad_id": 31161, "name": "FENGYUN 1C DEB", "group": "fengyun-1c-debris", "lat": -17.848877851116058, "lon": 24.747893965799385, "alt_km": 824.9140438948134, "timestamp": "2025-12-26T17:24:55.000077+00:00", "meta": {"OBJECT_NAME": "FENGYUN 1C DEB", "OBJECT_ID": "1999-025BHP", "EPOCH": "2025-12-26T07:16:34.291488", "MEAN_MOTION": 14.09265442, "ECCENTRICITY": 0.00678865, "INCLINATION": 98.7477, "RA_OF_ASC_NODE": 21.4958, "ARG_OF_PERICENTER": 311.4552, "MEAN_ANOMALY": 48.08, "EPHEMERIS_TYPE": 0, "CLASSIFICATION_TYPE": "U", "NORAD_CAT_ID": 31161, "ELEMENT_SET_NO": 999, "REV_AT_EPOCH": 96293, "BSTAR": 0.00029138413, "MEAN_MOTION_DOT": 4.75e-06, "MEAN_MOTION_DDOT": 0}, "tle": {"line1": "1 31161U 99025BHP 25360.30317467  .00000475  00000+0  29138-3 0  9995", "line2": "2 31161  98.7477  21.4958 0067886 311.4552  48.0800 14.09265442962937"}}, "geometry": {"type": "Point", "coordinates": [24.747893965799385, -17.848877851116058]}}, {"type": "Feature", "properties": {"norad_id": 31165, "name": "FENGYUN 1C DEB", "group": "fengyun-1c-debris", "lat": 20.762228849215294, "lon": -114.82196114273663, "alt_km": 615.5365417238299, "timestamp": "2025-12-26T17:24:55.000087+00:00", "meta": {"OBJECT_NAME": "FENGYUN 1C DEB", "OBJECT_ID": "1999-025BHT", "EPOCH": "2025-12-24T02:48:27.724320", "MEAN_MOTION": 14.71218938, "ECCENTRICITY": 0.00695704, "INCLINATION": 98.8836, "RA_OF_ASC_NODE": 58.935, "ARG_OF_PERICENTER": 199.3227, "MEAN_ANOMALY": 191.4631, "EPHEMERIS_TYPE": 0, "CLASSIFICATION_TYPE": "U", "NORAD_CAT_ID": 31165, "ELEMENT_SET_NO": 999, "REV_AT_EPOCH": 98922, "BSTAR": 0.0013134818, "MEAN_MOTION_DOT": 8.356e-05, "MEAN_MOTION_DDOT": 0}, "tle": {"line1": "1 31165U 99025BHT 25358.11698755  .00008356  00000+0  13135-2 0  9992", "line2": "2 31165  98.8836  58.9350 0069570 199.3227 191.4631 14.71218938989229"}}, "geometry": {"type": "Point", "coordinates": [-114.82196114273663, 20.762228849215294]}}]}